STARLINK-4623           
1 55315U 23010AY  23170.00095650 -.00001476  00000+0 -11299-3 0  9997
2 55315  69.9991  12.4547 0002574 269.7204  90.3660 14.99291701 23973
STARLINK-5257           
1 55316U 23010AZ  23169.83246023  .00007568  00000+0  64614-4 0  9995
2 55316  69.9992   6.5251 0003789 275.2280  84.8484 15.69937895 25283
STARLINK-5265           
1 55317U 23010BA  23169.54770516  .00003893  00000+0  34128-4 0  9997
2 55317  69.9991   7.1267 0003580 269.2770  90.8016 15.69925912 25244
STARLINK-5180           
1 55318U 23010BB  23169.80235741  .00003351  00000+0  29615-4 0  9997
2 55318  69.9983   6.4092 0003665 270.1976  89.8799 15.69930412 25288
STARLINK-5196           
1 55319U 23010BC  23169.80225186  .00003136  00000+0  27836-4 0  9994
2 55319  69.9986   6.4085 0003529 271.1270  88.9521 15.69928917 25281
HAWK-6B                 
1 55324U 23011A   23169.71374153  .00002920  00000+0  20060-3 0  9991
2 55324  40.5166 176.1919 0003792 158.1038 201.9928 15.07337608 21828
HAWK-6C                 
1 55326U 23011C   23169.71345980  .00002965  00000+0  20351-3 0  9991
2 55326  40.4852 175.7358 0003404 146.1043 213.9978 15.07332662 21830
HAWK-6A                 
1 55327U 23011D   23169.71330092  .00002983  00000+0  20466-3 0  9997
2 55327  40.5011 175.9822 0003243 141.4327 218.6709 15.07335624 21836
STARLINK-5492           
1 55331U 23013A   23169.77516003  .00000964  00000+0  86394-4 0  9998
2 55331  43.0044 306.8334 0001680 266.3754  93.6896 15.02542840 23129
STARLINK-5491           
1 55332U 23013B   23169.75321918 -.00002196  00000+0 -14752-3 0  9995
2 55332  43.0030 293.6480 0001560 258.5134 101.5533 15.02547453 22190
STARLINK-5493           
1 55333U 23013C   23169.76962746 -.00000829  00000+0 -46254-4 0  9991
2 55333  43.0049 306.7910 0001553 266.1244  93.9421 15.02540360 22048
STARLINK-5652           
1 55334U 23013D   23169.80606116 -.00000054  00000+0  11189-4 0  9991
2 55334  43.0044 302.7448 0001496 272.1017  87.9654 15.01733366 22092
STARLINK-5660           
1 55335U 23013E   23169.76739438 -.00000320  00000+0 -86040-5 0  9997
2 55335  43.0046 306.7739 0001577 271.8051  88.2611 15.02545664 22041
STARLINK-5655           
1 55336U 23013F   23169.80873238 -.00000218  00000+0 -12085-5 0  9994
2 55336  43.0023 292.2822 0001701 267.2638  92.8010 15.01736137 22644
