[{
    "OBJECT_NAME": "STARLINK-4623",
    "OBJECT_ID": "2023-010AY",
    "EPOCH": "2023-06-19T00:01:22.641600",
    "MEAN_MOTION": 14.99291701,
    "ECCENTRICITY": 0.0002574,
    "INCLINATION": 69.9991,
    "RA_OF_ASC_NODE": 12.4547,
    "ARG_OF_PERICENTER": 269.7204,
    "MEAN_ANOMALY": 90.366,
    "EPHEMERIS_TYPE": 0,
    "CLASSIFICATION_TYPE": "U",
    "NORAD_CAT_ID": 55315,
    "ELEMENT_SET_NO": 999,
    "REV_AT_EPOCH": 2397,
    "BSTAR": -0.00011299,
    "MEAN_MOTION_DOT": -1.476e-5,
    "MEAN_MOTION_DDOT": 0
},{
    "OBJECT_NAME": "STARLINK-5257",
    "OBJECT_ID": "2023-010AZ",
    "EPOCH": "2023-06-18T19:58:44.563872",
    "MEAN_MOTION": 15.69937895,
    "ECCENTRICITY": 0.0003789,
    "INCLINATION": 69.9992,
    "RA_OF_ASC_NODE": 6.5251,
    "ARG_OF_PERICENTER": 275.228,
    "MEAN_ANOMALY": 84.8484,
    "EPHEMERIS_TYPE": 0,
    "CLASSIFICATION_TYPE": "U",
    "NORAD_CAT_ID": 55316,
    "ELEMENT_SET_NO": 999,
    "REV_AT_EPOCH": 2528,
    "BSTAR": 6.4614e-5,
    "MEAN_MOTION_DOT": 7.568e-5,
    "MEAN_MOTION_DDOT": 0
},{
    "OBJECT_NAME": "STARLINK-5265",
    "OBJECT_ID": "2023-010BA",
    "EPOCH": "2023-06-18T13:08:41.725824",
    "MEAN_MOTION": 15.69925912,
    "ECCENTRICITY": 0.000358,
    "INCLINATION": 69.9991,
    "RA_OF_ASC_NODE": 7.1267,
    "ARG_OF_PERICENTER": 269.277,
    "MEAN_ANOMALY": 90.8016,
    "EPHEMERIS_TYPE": 0,
    "CLASSIFICATION_TYPE": "U",
    "NORAD_CAT_ID": 55317,
    "ELEMENT_SET_NO": 999,
    "REV_AT_EPOCH": 2524,
    "BSTAR": 3.4128e-5,
    "MEAN_MOTION_DOT": 3.893e-5,
    "MEAN_MOTION_DDOT": 0
},{
    "OBJECT_NAME": "STARLINK-5180",
    "OBJECT_ID": "2023-010BB",
    "EPOCH": "2023-06-18T19:15:23.680224",
    "MEAN_MOTION": 15.69930412,
    "ECCENTRICITY": 0.0003665,
    "INCLINATION": 69.9983,
    "RA_OF_ASC_NODE": 6.4092,
    "ARG_OF_PERICENTER": 270.1976,
    "MEAN_ANOMALY": 89.8799,
    "EPHEMERIS_TYPE": 0,
    "CLASSIFICATION_TYPE": "U",
    "NORAD_CAT_ID": 55318,
    "ELEMENT_SET_NO": 999,
    "REV_AT_EPOCH": 2528,
    "BSTAR": 2.9615e-5,
    "MEAN_MOTION_DOT": 3.351e-5,
    "MEAN_MOTION_DDOT": 0
},{
    "OBJECT_NAME": "STARLINK-5196",
    "OBJECT_ID": "2023-010BC",
    "EPOCH": "2023-06-18T19:15:14.560704",
    "MEAN_MOTION": 15.69928917,
    "ECCENTRICITY": 0.0003529,
    "INCLINATION": 69.9986,
    "RA_OF_ASC_NODE": 6.4085,
    "ARG_OF_PERICENTER": 271.127,
    "MEAN_ANOMALY": 88.9521,
    "EPHEMERIS_TYPE": 0,
    "CLASSIFICATION_TYPE": "U",
    "NORAD_CAT_ID": 55319,
    "ELEMENT_SET_NO": 999,
    "REV_AT_EPOCH": 2528,
    "BSTAR": 2.7836e-5,
    "MEAN_MOTION_DOT": 3.136e-5,
    "MEAN_MOTION_DDOT": 0
},{
    "OBJECT_NAME": "HAWK-6B",
    "OBJECT_ID": "2023-011A",
    "EPOCH": "2023-06-18T17:07:47.268192",
    "MEAN_MOTION": 15.07337608,
    "ECCENTRICITY": 0.0003792,
    "INCLINATION": 40.5166,
    "RA_OF_ASC_NODE": 176.1919,
    "ARG_OF_PERICENTER": 158.1038,
    "MEAN_ANOMALY": 201.9928,
    "EPHEMERIS_TYPE": 0,
    "CLASSIFICATION_TYPE": "U",
    "NORAD_CAT_ID": 55324,
    "ELEMENT_SET_NO": 999,
    "REV_AT_EPOCH": 2182,
    "BSTAR": 0.0002006,
    "MEAN_MOTION_DOT": 2.92e-5,
    "MEAN_MOTION_DDOT": 0
},{
    "OBJECT_NAME": "HAWK-6C",
    "OBJECT_ID": "2023-011C",
    "EPOCH": "2023-06-18T17:07:22.926720",
    "MEAN_MOTION": 15.07332662,
    "ECCENTRICITY": 0.0003404,
    "INCLINATION": 40.4852,
    "RA_OF_ASC_NODE": 175.7358,
    "ARG_OF_PERICENTER": 146.1043,
    "MEAN_ANOMALY": 213.9978,
    "EPHEMERIS_TYPE": 0,
    "CLASSIFICATION_TYPE": "U",
    "NORAD_CAT_ID": 55326,
    "ELEMENT_SET_NO": 999,
    "REV_AT_EPOCH": 2183,
    "BSTAR": 0.00020351,
    "MEAN_MOTION_DOT": 2.965e-5,
    "MEAN_MOTION_DDOT": 0
},{
    "OBJECT_NAME": "HAWK-6A",
    "OBJECT_ID": "2023-011D",
    "EPOCH": "2023-06-18T17:07:09.199488",
    "MEAN_MOTION": 15.07335624,
    "ECCENTRICITY": 0.0003243,
    "INCLINATION": 40.5011,
    "RA_OF_ASC_NODE": 175.9822,
    "ARG_OF_PERICENTER": 141.4327,
    "MEAN_ANOMALY": 218.6709,
    "EPHEMERIS_TYPE": 0,
    "CLASSIFICATION_TYPE": "U",
    "NORAD_CAT_ID": 55327,
    "ELEMENT_SET_NO": 999,
    "REV_AT_EPOCH": 2183,
    "BSTAR": 0.00020466,
    "MEAN_MOTION_DOT": 2.983e-5,
    "MEAN_MOTION_DDOT": 0
},{
    "OBJECT_NAME": "STARLINK-5492",
    "OBJECT_ID": "2023-013A",
    "EPOCH": "2023-06-18T18:36:13.826592",
    "MEAN_MOTION": 15.0254284,
    "ECCENTRICITY": 0.000168,
    "INCLINATION": 43.0044,
    "RA_OF_ASC_NODE": 306.8334,
    "ARG_OF_PERICENTER": 266.3754,
    "MEAN_ANOMALY": 93.6896,
    "EPHEMERIS_TYPE": 0,
    "CLASSIFICATION_TYPE": "U",
    "NORAD_CAT_ID": 55331,
    "ELEMENT_SET_NO": 999,
    "REV_AT_EPOCH": 2312,
    "BSTAR": 8.6394e-5,
    "MEAN_MOTION_DOT": 9.64e-6,
    "MEAN_MOTION_DDOT": 0
},{
    "OBJECT_NAME": "STARLINK-5491",
    "OBJECT_ID": "2023-013B",
    "EPOCH": "2023-06-18T18:04:38.137152",
    "MEAN_MOTION": 15.02547453,
    "ECCENTRICITY": 0.000156,
    "INCLINATION": 43.003,
    "RA_OF_ASC_NODE": 293.648,
    "ARG_OF_PERICENTER": 258.5134,
    "MEAN_ANOMALY": 101.5533,
    "EPHEMERIS_TYPE": 0,
    "CLASSIFICATION_TYPE": "U",
    "NORAD_CAT_ID": 55332,
    "ELEMENT_SET_NO": 999,
    "REV_AT_EPOCH": 2219,
    "BSTAR": -0.00014752,
    "MEAN_MOTION_DOT": -2.196e-5,
    "MEAN_MOTION_DDOT": 0
},{
    "OBJECT_NAME": "STARLINK-5493",
    "OBJECT_ID": "2023-013C",
    "EPOCH": "2023-06-18T18:28:15.812544",
    "MEAN_MOTION": 15.0254036,
    "ECCENTRICITY": 0.0001553,
    "INCLINATION": 43.0049,
    "RA_OF_ASC_NODE": 306.791,
    "ARG_OF_PERICENTER": 266.1244,
    "MEAN_ANOMALY": 93.9421,
    "EPHEMERIS_TYPE": 0,
    "CLASSIFICATION_TYPE": "U",
    "NORAD_CAT_ID": 55333,
    "ELEMENT_SET_NO": 999,
    "REV_AT_EPOCH": 2204,
    "BSTAR": -4.6254e-5,
    "MEAN_MOTION_DOT": -8.29e-6,
    "MEAN_MOTION_DDOT": 0
},{
    "OBJECT_NAME": "STARLINK-5652",
    "OBJECT_ID": "2023-013D",
    "EPOCH": "2023-06-18T19:20:43.684224",
    "MEAN_MOTION": 15.01733366,
    "ECCENTRICITY": 0.0001496,
    "INCLINATION": 43.0044,
    "RA_OF_ASC_NODE": 302.7448,
    "ARG_OF_PERICENTER": 272.1017,
    "MEAN_ANOMALY": 87.9654,
    "EPHEMERIS_TYPE": 0,
    "CLASSIFICATION_TYPE": "U",
    "NORAD_CAT_ID": 55334,
    "ELEMENT_SET_NO": 999,
    "REV_AT_EPOCH": 2209,
    "BSTAR": 1.1189e-5,
    "MEAN_MOTION_DOT": -5.4e-7,
    "MEAN_MOTION_DDOT": 0
},{
    "OBJECT_NAME": "STARLINK-5660",
    "OBJECT_ID": "2023-013E",
    "EPOCH": "2023-06-18T18:25:02.874432",
    "MEAN_MOTION": 15.02545664,
    "ECCENTRICITY": 0.0001577,
    "INCLINATION": 43.0046,
    "RA_OF_ASC_NODE": 306.7739,
    "ARG_OF_PERICENTER": 271.8051,
    "MEAN_ANOMALY": 88.2611,
    "EPHEMERIS_TYPE": 0,
    "CLASSIFICATION_TYPE": "U",
    "NORAD_CAT_ID": 55335,
    "ELEMENT_SET_NO": 999,
    "REV_AT_EPOCH": 2204,
    "BSTAR": -8.604e-6,
    "MEAN_MOTION_DOT": -3.2e-6,
    "MEAN_MOTION_DDOT": 0
},{
    "OBJECT_NAME": "STARLINK-5655",
    "OBJECT_ID": "2023-013F",
    "EPOCH": "2023-06-18T19:24:34.477632",
    "MEAN_MOTION": 15.01736137,
    "ECCENTRICITY": 0.0001701,
    "INCLINATION": 43.0023,
    "RA_OF_ASC_NODE": 292.2822,
    "ARG_OF_PERICENTER": 267.2638,
    "MEAN_ANOMALY": 92.801,
    "EPHEMERIS_TYPE": 0,
    "CLASSIFICATION_TYPE": "U",
    "NORAD_CAT_ID": 55336,
    "ELEMENT_SET_NO": 999,
    "REV_AT_EPOCH": 2264,
    "BSTAR": -1.2085e-6,
    "MEAN_MOTION_DOT": -2.18e-6,
    "MEAN_MOTION_DDOT": 0
}]